NORAD_CAT_ID,OBJECT_NAME,OBJECT_TYPE,EPOCH,MEAN_MOTION,ECCENTRICITY,INCLINATION,RA_OF_ASC_NODE,ARG_OF_PERICENTER,MEAN_ANOMALY,BSTAR,MEAN_MOTION_DOT,MEAN_MOTION_DDOT,TLE_LINE0,TLE_LINE1,TLE_LINE2,SEMIMAJOR_AXIS,PERIOD,APOGEE,PERIGEE,DECAYED
50203.0,STARLINK-3257,PAYLOAD,2023-06-15 01:06:36,15.08829805,0.0001216,53.2186,42.2039,86.0829,274.0302,0.00014813,2.07e-05,0.0,0 STARLINK-3257,1 50203U 21125AZ  23166.04625336  .00002070  00000-0  14813-3 0  9997,2 50203  53.2186  42.2039 0001216  86.0829 274.0302 15.08829805 82891,6917.912,95.438,540.618,538.935,0.0
50203.0,STARLINK-3257,PAYLOAD,2023-06-16 00:57:22,15.0885161,0.0001225,53.2189,37.7404,89.7392,270.3741,0.00013369,1.841e-05,0.0,0 STARLINK-3257,1 50203U 21125AZ  23167.03983984  .00001841  00000-0  13369-3 0  9993,2 50203  53.2189  37.7404 0001225  89.7392 270.3741 15.08851610 83047,6917.845,95.437,540.557,538.862,0.0
50203.0,STARLINK-3257,PAYLOAD,2023-06-16 08:54:18,15.08842407,9.22e-05,53.2188,36.2527,113.752,246.3569,7.7998e-05,9.54e-06,0.0,0 STARLINK-3257,1 50203U 21125AZ  23167.37104449  .00000954  00000-0  77998-4 0  9994,2 50203  53.2188  36.2527 0000922 113.7520 246.3569 15.08842407 83090,6917.873,95.437,540.376,539.1,0.0
50203.0,STARLINK-3257,PAYLOAD,2023-06-16 18:26:37,15.08841771,0.0001133,53.2186,34.4693,102.2085,257.9035,9.1996e-05,1.177e-05,0.0,0 STARLINK-3257,1 50203U 21125AZ  23167.76848524  .00001177  00000-0  91996-4 0  9998,2 50203  53.2186  34.4693 0001133 102.2085 257.9035 15.08841771 86290,6917.875,95.437,540.524,538.956,0.0
50203.0,STARLINK-3257,PAYLOAD,2023-06-16 21:37:23,15.08844545,0.0001125,53.2191,33.8741,105.7549,254.3567,0.00010302,1.352e-05,0.0,0 STARLINK-3257,1 50203U 21125AZ  23167.90096309  .00001352  00000-0  10302-3 0  9996,2 50203  53.2191  33.8741 0001125 105.7549 254.3567 15.08844545 86313,6917.866,95.437,540.51,538.953,0.0
50203.0,STARLINK-3257,PAYLOAD,2023-06-17 21:28:11,15.08838464,0.0001067,53.2177,29.4185,77.2467,282.8644,-3.1655e-05,-7.92e-06,0.0,0 STARLINK-3257,1 50203U 21125AZ  23168.89457333 -.00000792  00000-0 -31655-4 0  9997,2 50203  53.2177  29.4185 0001067  77.2467 282.8644 15.08838464 86468,6917.885,95.438,540.488,539.012,0.0
50203.0,STARLINK-3257,PAYLOAD,2023-06-18 00:38:57,15.088391,0.0001031,53.2179,28.8218,77.991,282.1198,-4.8787e-05,-1.064e-05,0.0,0 STARLINK-3257,1 50203U 21125AZ  23169.02705289 -.00001064  00000-0 -48787-4 0  9996,2 50203  53.2179  28.8218 0001031  77.9910 282.1198 15.08839100 83340,6917.883,95.438,540.461,539.035,0.0
50203.0,STARLINK-3257,PAYLOAD,2023-06-18 21:18:57,15.0884106,0.0001015,53.2189,24.9555,87.0475,273.0634,7.3652e-05,8.85e-06,0.0,0 STARLINK-3257,1 50203U 21125AZ  23169.88816956  .00000885  00000-0  73652-4 0  9991,2 50203  53.2189  24.9555 0001015  87.0475 273.0634 15.08841060 86617,6917.877,95.437,540.444,539.04,0.0
50203.0,STARLINK-3257,PAYLOAD,2023-06-19 00:29:43,15.08850423,0.0001058,53.2189,24.3605,92.6972,267.4141,7.6559e-05,9.31e-06,0.0,0 STARLINK-3257,1 50203U 21125AZ  23170.02064350  .00000931  00000-0  76559-4 0  9993,2 50203  53.2189  24.3605 0001058  92.6972 267.4141 15.08850423 83494,6917.849,95.437,540.445,538.982,0.0
50203.0,STARLINK-3257,PAYLOAD,2023-06-19 06:51:16,15.08844478,9.88e-05,53.2187,23.1716,84.0042,276.1063,3.8645e-05,3.27e-06,0.0,0 STARLINK-3257,1 50203U 21125AZ  23170.28560864  .00000327  00000-0  38645-4 0  9995,2 50203  53.2187  23.1716 0000988  84.0042 276.1063 15.08844478 83534,6917.867,95.437,540.415,539.048,0.0
50203.0,STARLINK-3257,PAYLOAD,2023-06-19 16:23:35,15.08836101,9.87e-05,53.2183,21.3882,80.4942,279.6162,0.00011977,1.619e-05,0.0,0 STARLINK-3257,1 50203U 21125AZ  23170.68305428  .00001619  00000-0  11977-3 0  9995,2 50203  53.2183  21.3882 0000987  80.4942 279.6162 15.08836101 83590,6917.892,95.438,540.44,539.075,0.0
50203.0,STARLINK-3257,PAYLOAD,2023-06-19 21:09:44,15.088428,0.0001034,53.2188,20.4955,83.2022,276.9087,0.00017525,2.503e-05,0.0,0 STARLINK-3257,1 50203U 21125AZ  23170.88176920  .00002503  00000-0  17525-3 0  9998,2 50203  53.2188  20.4955 0001034  83.2022 276.9087 15.08842800 86761,6917.872,95.437,540.452,539.022,0.0
50203.0,STARLINK-3257,PAYLOAD,2023-06-20 00:20:31,15.08847944,0.0001058,53.2182,19.9006,82.6682,277.4431,0.00022248,3.255e-05,0.0,0 STARLINK-3257,1 50203U 21125AZ  23171.01424787  .00003255  00000-0  22248-3 0  9994,2 50203  53.2182  19.9006 0001058  82.6682 277.4431 15.08847944 83643,6917.856,95.437,540.453,538.989,0.0
50203.0,STARLINK-3257,PAYLOAD,2023-06-20 06:42:03,15.08843267,0.0001063,53.2186,18.7103,75.065,285.0459,0.00012141,1.645e-05,0.0,0 STARLINK-3257,1 50203U 21125AZ  23171.27920999  .00001645  00000-0  12141-3 0  9990,2 50203  53.2186  18.7103 0001063  75.0650 285.0459 15.08843267 83682,6917.87,95.437,540.471,539.0,0.0
50203.0,STARLINK-3257,PAYLOAD,2023-06-20 17:49:46,15.08836216,0.0001053,53.2181,16.6303,82.5043,277.6069,-0.00011492,-2.116e-05,0.0,0 STARLINK-3257,1 50203U 21125AZ  23171.74289375 -.00002116  00000-0 -11492-3 0  9992,2 50203  53.2181  16.6303 0001053  82.5043 277.6069 15.08836216 83752,6917.892,95.438,540.485,539.029,0.0
50203.0,STARLINK-3257,PAYLOAD,2023-06-20 21:00:32,15.088417,0.0001079,53.2189,16.0354,80.5599,279.5516,-1.9246e-06,-3.18e-06,0.0,0 STARLINK-3257,1 50203U 21125AZ  23171.87537523 -.00000318  00000-0 -19246-5 0  9996,2 50203  53.2189  16.0354 0001079  80.5599 279.5516 15.08841700 86915,6917.875,95.437,540.487,538.994,0.0
50203.0,STARLINK-3257,PAYLOAD,2023-06-21 12:54:24,15.08832355,0.00011,53.2196,13.0634,86.4353,273.6765,4.8427e-05,4.83e-06,0.0,0 STARLINK-3257,1 50203U 21125AZ  23172.53778154  .00000483  00000-0  48427-4 0  9990,2 50203  53.2196  13.0634 0001100  86.4353 273.6765 15.08832355 87018,6917.904,95.438,540.53,539.008,0.0
50203.0,STARLINK-3257,PAYLOAD,2023-06-21 19:15:56,15.08839727,9.99e-05,53.2188,11.8729,83.651,276.4596,4.1068e-06,-2.22e-06,0.0,0 STARLINK-3257,1 50203U 21125AZ  23172.80273875 -.00000222  00000-0  41068-5 0  9997,2 50203  53.2188  11.8729 0000999  83.6510 276.4596 15.08839727 87056,6917.881,95.438,540.437,539.055,0.0
50203.0,STARLINK-3257,PAYLOAD,2023-06-21 20:51:19,15.0884185,0.0001001,53.2189,11.5751,84.709,275.4017,1.4216e-05,-6.1e-07,0.0,0 STARLINK-3257,1 50203U 21125AZ  23172.86897704 -.00000061  00000-0  14216-4 0  9991,2 50203  53.2189  11.5751 0001001  84.7090 275.4017 15.08841850 83928,6917.875,95.437,540.432,539.047,0.0
50203.0,STARLINK-3257,PAYLOAD,2023-06-22 22:17:29,15.08850042,0.0001,53.218,6.8171,84.755,275.3556,0.00024891,3.677e-05,0.0,0 STARLINK-3257,1 50203U 21125AZ  23173.92881293  .00003677  00000-0  24891-3 0  9999,2 50203  53.2180   6.8171 0001000  84.7550 275.3556 15.08850042 84080,6917.85,95.437,540.406,539.023,0.0
50203.0,STARLINK-3257,PAYLOAD,2023-06-23 18:57:30,15.08845139,0.0001043,53.2177,2.9517,93.4872,266.6239,0.00017216,2.454e-05,0.0,0 STARLINK-3257,1 50203U 21125AZ  23174.78993610  .00002454  00000-0  17216-3 0  9996,2 50203  53.2177   2.9517 0001043  93.4872 266.6239 15.08845139 84215,6917.865,95.437,540.451,539.008,0.0
50203.0,STARLINK-3257,PAYLOAD,2023-06-24 15:37:31,15.0884066,0.0001119,53.2164,359.0851,95.6927,264.4192,6.6509e-05,7.71e-06,0.0,0 STARLINK-3257,1 50203U 21125AZ  23175.65105902  .00000771  00000-0  66509-4 0  9992,2 50203  53.2164 359.0851 0001119  95.6927 264.4192 15.08840660 84349,6917.878,95.438,540.517,538.969,0.0
50203.0,STARLINK-3257,PAYLOAD,2023-06-24 23:34:26,15.08851347,0.0001162,53.2189,357.599,92.2465,267.866,0.00015013,2.103e-05,0.0,0 STARLINK-3257,1 50203U 21125AZ  23175.98225240  .00002103  00000-0  15013-3 0  9990,2 50203  53.2189 357.5990 0001162  92.2465 267.8660 15.08851347 84397,6917.846,95.437,540.515,538.907,0.0
50203.0,STARLINK-3257,PAYLOAD,2023-06-25 17:03:41,15.08838594,0.0001149,53.2173,354.3275,99.6846,260.4276,3.2869e-05,2.35e-06,0.0,0 STARLINK-3257,1 50203U 21125AZ  23176.71089962  .00000235  00000-0  32869-4 0  9994,2 50203  53.2173 354.3275 0001149  99.6846 260.4276 15.08838594 84504,6917.885,95.438,540.545,538.955,0.0
50203.0,STARLINK-3257,PAYLOAD,2023-06-27 04:02:10,15.08839135,0.0001022,53.2184,347.7856,81.546,278.5648,3.0004e-05,1.9e-06,0.0,0 STARLINK-3257,1 50203U 21125AZ  23178.16818142  .00000190  00000-0  30004-4 0  9994,2 50203  53.2184 347.7856 0001022  81.5460 278.5648 15.08839135 84728,6917.883,95.438,540.455,539.041,0.0
50203.0,STARLINK-3257,PAYLOAD,2023-06-28 03:52:58,15.08829339,0.0001803,53.218,343.3238,84.1831,275.9367,-5.1838e-05,-1.113e-05,0.0,0 STARLINK-3257,1 50203U 21125AZ  23179.16178991 -.00001113  00000-0 -51838-4 0  9992,2 50203  53.2180 343.3238 0001803  84.1831 275.9367 15.08829339 84878,6917.913,95.438,541.025,538.531,0.0
50203.0,STARLINK-3257,PAYLOAD,2023-06-28 18:11:26,15.08842377,9.44e-05,53.2176,340.6489,84.0113,276.0987,0.00012357,1.68e-05,0.0,0 STARLINK-3257,1 50203U 21125AZ  23179.75794245  .00001680  00000-0  12357-3 0  9992,2 50203  53.2176 340.6489 0000944  84.0113 276.0987 15.08842377 84965,6917.873,95.437,540.391,539.085,0.0
50203.0,STARLINK-3257,PAYLOAD,2023-06-30 14:42:14,15.08840933,0.000102,53.2169,332.3245,81.262,278.8488,0.00016026,2.264e-05,0.0,0 STARLINK-3257,1 50203U 21125AZ  23181.61266521  .00002264  00000-0  16026-3 0  9997,2 50203  53.2169 332.3245 0001020  81.2620 278.8488 15.08840933 85247,6917.878,95.437,540.448,539.037,0.0
50203.0,STARLINK-3257,PAYLOAD,2023-07-01 09:46:52,15.08837191,0.0001116,53.2176,328.7556,80.4526,279.6592,8.6598e-05,1.091e-05,0.0,0 STARLINK-3257,1 50203U 21125AZ  23182.40754792  .00001091  00000-0  86598-4 0  9996,2 50203  53.2176 328.7556 0001116  80.4526 279.6592 15.08837191 85361,6917.889,95.438,540.526,538.982,0.0
50203.0,STARLINK-3257,PAYLOAD,2023-07-02 15:59:11,15.08845224,9.89e-05,53.2187,323.1062,91.3577,268.7528,0.00021227,3.093e-05,0.0,0 STARLINK-3257,1 50203U 21125AZ  23183.66610547  .00003093  00000-0  21227-3 0  9995,2 50203  53.2187 323.1062 0000989  91.3577 268.7528 15.08845224 85553,6917.864,95.437,540.414,539.045,0.0
